HELLAS-SAT 3            
1 42814U 17040A   26159.99308707  .00000169  00000+0  00000+0 0  9991
2 42814   0.0579  55.5659 0004626 354.8875 243.4447  1.00273758 32720
GSAT-17                 
1 42815U 17040B   26160.14646435 -.00000241  00000+0  00000+0 0  9996
2 42815   0.1055  88.3225 0001576 213.1314 102.3113  1.00271689 32702
INTELSAT 35E (IS-35E)   
1 42818U 17041A   26160.26372941 -.00000221  00000+0  00000+0 0  9999
2 42818   0.0188   5.7538 0001608  72.5158 239.8454  1.00271523 32734
COSMOS 2520             
1 42907U 17046A   26159.63781562  .00000153  00000+0  00000+0 0  9998
2 42907   0.0442  86.9350 0001169  55.5058  29.2057  1.00270113 32319
TDRS 13                 
1 42915U 17047A   26160.19697440 -.00000085  00000+0  00000+0 0  9997
2 42915   3.4494   2.5186 0014577 105.4160 209.1154  1.00271934 32262
QZS-3 (MICHIBIKI-3)     
1 42917U 17048A   26160.29569498 -.00000331  00000+0  00000+0 0  9996
2 42917   0.0574 180.0960 0002652 267.3882  43.6589  1.00269102 32186
AMAZONAS 5              
1 42934U 17053A   26160.25844272 -.00000266  00000+0  00000+0 0  9990
2 42934   0.0314 323.9880 0002408  64.9803 260.7185  1.00270126 31966
ASIASAT 9               
1 42942U 17057A   26158.94017586 -.00000344  00000+0  00000+0 0  9993
2 42942   0.0114  80.9491 0002481 346.4825 289.4719  1.00270474 31769
INTELSAT 37E (IS-37E)   
1 42950U 17059A   26160.27336319  .00000000  00000+0  00000+0 0  9999
2 42950   0.0198 355.9385 0002310 106.2847 235.8339  1.00268411 31989
BSAT-4A                 
1 42951U 17059B   26160.00712714 -.00000334  00000+0  00000+0 0  9999
2 42951   0.0365   6.7991 0004164  58.5529 304.4340  1.00272912 31712
QZS-4 (MICHIBIKI-4)     
1 42965U 17062A   26159.36948078 -.00000310  00000+0  00000+0 0  9993
2 42965  40.1136 343.5961 0745005 271.5827 272.2936  1.00253721 31711
SES-11 (ECHOSTAR 105)   
1 42967U 17063A   26160.23329497 -.00000072  00000+0  00000+0 0  9997
2 42967   0.0145 351.3734 0002693  98.3699 146.9026  1.00270845 31649
KOREASAT 5A             
1 42984U 17067A   26160.22158785 -.00000341  00000+0  00000+0 0  9998
2 42984   0.0107 317.1874 0000566 128.9174   4.4279  1.00271152 31455
ALCOMSAT 1              
1 43039U 17078A   26160.23364906 -.00000169  00000+0  00000+0 0  9995
2 43039   0.0355  72.2781 0002348   1.9832 242.6730  1.00272614 31215
SBIRS GEO-3 (USA 282)   
1 43162U 18009A   26160.21127617  .00000144  00000+0  00000+0 0  9993
2 43162   2.1783  11.6945 0002039  62.6870  99.8744  1.00271795 30767
AL YAH 3                
1 43174U 18012A   26160.30253185 -.00000138  00000+0  00000+0 0  9994
2 43174   1.5304  83.2038 0004087 355.4920 267.8041  1.00271230 30765
SES-14                  
1 43175U 18012B   26160.26112940 -.00000262  00000+0  00000+0 0  9991
2 43175   0.0211  29.5142 0001049  51.4310 223.2026  1.00270467  6940
GOES 17                 
1 43226U 18022A   26160.25287104 -.00000166  00000+0  00000+0 0  9996
2 43226   0.9160  85.8579 0000575  13.4824 159.8381  1.00271569 30342
HISPASAT 30W-6          
1 43228U 18023A   26160.19333439 -.00000199  00000+0  00000+0 0  9991
2 43228   0.0466  43.0702 0006064  24.4046 229.6971  1.00270107 30321
SUPERBIRD-B3            
1 43271U 18033A   26160.23122630 -.00000075  00000+0  00000+0 0  9997
2 43271   0.0180 296.6494 0001273 164.2375  41.9716  1.00270821 29986
HYLAS 4                 
1 43272U 18033B   26160.26390274 -.00000217  00000+0  00000+0 0  9990
2 43272   0.0188  57.2315 0000982  29.6447 232.3060  1.00268994 29984
IRNSS-1I                
1 43286U 18035A   26159.97936503  .00000092  00000+0  00000+0 0  9994
2 43286  28.7349  74.3250 0017795 182.7620  47.7314  1.00270374 29993
USA 283                 
1 43339U 18036A   26158.44341078  .00000000  00000+0  00000+0 0  9991
2 43339   0.0123 333.7419 0000458 159.1187  56.7029  1.00268454 25195
COSMOS 2526             
1 43432U 18037A   26160.29595498 -.00000327  00000+0  00000+0 0  9992
2 43432   0.0147  11.4942 0000463 198.5934 282.2090  1.00274990 29885
APSTAR-6C               
1 43450U 18041A   26160.01189383 -.00000301  00000+0  00000+0 0  9991
2 43450   0.0257 330.3359 0001193  24.0459  41.3055  1.00273005 29722
BANGABANDHUSAT-1        
1 43463U 18044A   26160.29413497  .00000000  00000+0  00000+0 0  9999
2 43463   0.0163 334.4874 0001762 106.4928  41.6750  1.00268417 29633
SES-12                  
1 43488U 18049A   26160.14672435 -.00000252  00000+0  00000+0 0  9994
2 43488   0.0270  41.9122 0000856 245.3533 118.0865  1.00269587 29335
FENGYUN 2H              
1 43491U 18050A   26160.07241723 -.00000114  00000+0  00000+0 0  9991
2 43491   3.0094  79.1692 0001581 126.3944 157.4108  1.00271216 29352
BEIDOU-2 IGSO-7         
1 43539U 18057A   26160.00127120  .00000033  00000+0  00000+0 0  9997
2 43539  55.1932 163.1291 0104903 237.9642 327.3297  1.00254101 29046
TELSTAR 19V             
1 43562U 18059A   26160.04519647 -.00000262  00000+0  00000+0 0  9993
2 43562   0.0357 175.1217 0003228 305.1580  90.4046  1.00255741 29063
TELKOM 4 (MERAH PUTIH)  
1 43587U 18064A   26160.29188163  .00000000  00000+0  00000+0 0  9997
2 43587   0.0169 341.5720 0001347 132.0275 357.1479  1.00268213 28809
TELSTAR 18V             
1 43611U 18069A   26160.29786164 -.00000277  00000+0  00000+0 0  9992
2 43611   0.0196 288.7488 0001819 146.1282  68.0478  1.00270612 28564
