OBJECT_NAME,OBJECT_ID,EPOCH,MEAN_MOTION,ECCENTRICITY,INCLINATION,RA_OF_ASC_NODE,ARG_OF_PERICENTER,MEAN_ANOMALY,EPHEMERIS_TYPE,CLASSIFICATION_TYPE,NORAD_CAT_ID,ELEMENT_SET_NO,REV_AT_EPOCH,BSTAR,MEAN_MOTION_DOT,MEAN_MOTION_DDOT
HELLAS-SAT 3,2017-040A,2026-06-08T23:50:02.722848,1.00273758,.00046263,0.0579,55.5659,354.8875,243.4447,0,U,42814,999,3272,0,.169E-5,0
GSAT-17,2017-040B,2026-06-09T03:30:54.519840,1.00271689,.00015767,0.1055,88.3225,213.1314,102.3113,0,U,42815,999,3270,0,-.241E-5,0
INTELSAT 35E (IS-35E),2017-041A,2026-06-09T06:19:46.221024,1.00271523,.00016083,0.0188,5.7538,72.5158,239.8454,0,U,42818,999,3273,0,-.221E-5,0
COSMOS 2520,2017-046A,2026-06-08T15:18:27.269568,1.00270113,.00011695,0.0442,86.9350,55.5058,29.2057,0,U,42907,999,3231,0,.153E-5,0
TDRS 13,2017-047A,2026-06-09T04:43:38.588160,1.00271934,.00145776,3.4494,2.5186,105.4160,209.1154,0,U,42915,999,3226,0,-.85E-6,0
QZS-3 (MICHIBIKI-3),2017-048A,2026-06-09T07:05:48.046272,1.00269102,.00026528,0.0574,180.0960,267.3882,43.6589,0,U,42917,999,3218,0,-.331E-5,0
AMAZONAS 5,2017-053A,2026-06-09T06:12:09.451008,1.00270126,.00024081,0.0314,323.9880,64.9803,260.7185,0,U,42934,999,3196,0,-.266E-5,0
ASIASAT 9,2017-057A,2026-06-07T22:33:51.194304,1.00270474,.00024816,0.0114,80.9491,346.4825,289.4719,0,U,42942,999,3176,0,-.344E-5,0
INTELSAT 37E (IS-37E),2017-059A,2026-06-09T06:33:38.579616,1.00268411,.00023106,0.0198,355.9385,106.2847,235.8339,0,U,42950,999,3198,0,0,0
BSAT-4A,2017-059B,2026-06-09T00:10:15.784896,1.00272912,.0004164,0.0365,6.7991,58.5529,304.4340,0,U,42951,999,3171,0,-.334E-5,0
QZS-4 (MICHIBIKI-4),2017-062A,2026-06-08T08:52:03.139392,1.00253721,.07450051,40.1136,343.5961,271.5827,272.2936,0,U,42965,999,3171,0,-.31E-5,0
SES-11 (ECHOSTAR 105),2017-063A,2026-06-09T05:35:56.685408,1.00270845,.00026936,0.0145,351.3734,98.3699,146.9026,0,U,42967,999,3164,0,-.72E-6,0
KOREASAT 5A,2017-067A,2026-06-09T05:19:05.190240,1.00271152,.00005669,0.0107,317.1874,128.9174,4.4279,0,U,42984,999,3145,0,-.341E-5,0
ALCOMSAT 1,2017-078A,2026-06-09T05:36:27.278784,1.00272614,.00023482,0.0355,72.2781,1.9832,242.6730,0,U,43039,999,3121,0,-.169E-5,0
SBIRS GEO-3 (USA 282),2018-009A,2026-06-09T05:04:14.261088,1.00271795,.00020399,2.1783,11.6945,62.6870,99.8744,0,U,43162,999,3076,0,.144E-5,0
AL YAH 3,2018-012A,2026-06-09T07:15:38.751840,1.00271230,.00040874,1.5304,83.2038,355.4920,267.8041,0,U,43174,999,3076,0,-.138E-5,0
SES-14,2018-012B,2026-06-09T06:16:01.580160,1.00270467,.00010499,0.0211,29.5142,51.4310,223.2026,0,U,43175,999,694,0,-.262E-5,0
GOES 17,2018-022A,2026-06-09T06:04:08.057856,1.00271569,.00005754,0.9160,85.8579,13.4824,159.8381,0,U,43226,999,3034,0,-.166E-5,0
HISPASAT 30W-6,2018-023A,2026-06-09T04:38:24.091296,1.00270107,.00060647,0.0466,43.0702,24.4046,229.6971,0,U,43228,999,3032,0,-.199E-5,0
SUPERBIRD-B3,2018-033A,2026-06-09T05:32:57.952320,1.00270821,.00012735,0.0180,296.6494,164.2375,41.9716,0,U,43271,999,2998,0,-.75E-6,0
HYLAS 4,2018-033B,2026-06-09T06:20:01.196736,1.00268994,.0000982,0.0188,57.2315,29.6447,232.3060,0,U,43272,999,2998,0,-.217E-5,0
IRNSS-1I,2018-035A,2026-06-08T23:30:17.138592,1.00270374,.00177953,28.7349,74.3250,182.7620,47.7314,0,U,43286,999,2999,0,.92E-6,0
USA 283,2018-036A,2026-06-07T10:38:30.691392,1.00268454,.0000458,0.0123,333.7419,159.1187,56.7029,0,U,43339,999,2519,0,0,0
COSMOS 2526,2018-037A,2026-06-09T07:06:10.510272,1.00274990,.00004632,0.0147,11.4942,198.5934,282.2090,0,U,43432,999,2988,0,-.327E-5,0
APSTAR-6C,2018-041A,2026-06-09T00:17:07.626912,1.00273005,.0001193,0.0257,330.3359,24.0459,41.3055,0,U,43450,999,2972,0,-.301E-5,0
BANGABANDHUSAT-1,2018-044A,2026-06-09T07:03:33.261408,1.00268417,.00017624,0.0163,334.4874,106.4928,41.6750,0,U,43463,999,2963,0,0,0
SES-12,2018-049A,2026-06-09T03:31:16.983840,1.00269587,.0000856,0.0270,41.9122,245.3533,118.0865,0,U,43488,999,2933,0,-.252E-5,0
FENGYUN 2H,2018-050A,2026-06-09T01:44:16.848672,1.00271216,.00015814,3.0094,79.1692,126.3944,157.4108,0,U,43491,999,2935,0,-.114E-5,0
BEIDOU-2 IGSO-7,2018-057A,2026-06-09T00:01:49.831680,1.00254101,.01049037,55.1932,163.1291,237.9642,327.3297,0,U,43539,999,2904,0,.33E-6,0
TELSTAR 19V,2018-059A,2026-06-09T01:05:04.975008,1.00255741,.00032288,0.0357,175.1217,305.1580,90.4046,0,U,43562,999,2906,0,-.262E-5,0
TELKOM 4 (MERAH PUTIH),2018-064A,2026-06-09T07:00:18.572832,1.00268213,.00013472,0.0169,341.5720,132.0275,357.1479,0,U,43587,999,2880,0,0,0
TELSTAR 18V,2018-069A,2026-06-09T07:08:55.245696,1.00270612,.00018192,0.0196,288.7488,146.1282,68.0478,0,U,43611,999,2856,0,-.277E-5,0
